start=new Date('2023-06-02T00:00:00.000Z').valueOf();
sats=[{"MEAN_MOTION_DDOT":"0.0000000000000","TIME_SYSTEM":"UTC","FILE":"3922718","ELEMENT_SET_NO":"999","ARG_OF_PERICENTER":"270.6995","PERIOD":"93.017","COUNTRY_CODE":"US","OBJECT_NAME":"STARLINK-5326","CLASSIFICATION_TYPE":"U","APOAPSIS":"424.571","SITE":"AFWTR","LAUNCH_DATE":"2023-02-17","INCLINATION":"70.0003","REF_FRAME":"TEME","MEAN_ELEMENT_THEORY":"SGP4","OBJECT_TYPE":"PAYLOAD","TLE_LINE1":"1 55656U 23021AE  23152.91667824 -.00880046  00000-0 -18376-1 0  9995","EPHEMERIS_TYPE":"0","BSTAR":"-0.01837600000000","PERIAPSIS":"420.010","MEAN_ANOMALY":"282.4086","TLE_LINE2":"2 55656  70.0003 217.8278 0003353 270.6995 282.4086 15.48098670  1308","ECCENTRICITY":"0.00033530","NORAD_CAT_ID":"55656","DECAY_DATE":null,"RCS_SIZE":"LARGE","MEAN_MOTION_DOT":"-0.00880046","REV_AT_EPOCH":"130","SEMIMAJOR_AXIS":"6800.425","GP_ID":"233000797","EPOCH":"2023-06-01T22:00:00.999936","MEAN_MOTION":"15.48098670","RA_OF_ASC_NODE":"217.8278","CENTER_NAME":"EARTH","OBJECT_ID":"2023-021AE"},{"REF_FRAME":"TEME","MEAN_ELEMENT_THEORY":"SGP4","OBJECT_TYPE":"PAYLOAD","TLE_LINE1":"1 55657U 23021AF  23152.90110299  .00001138  00000-0  11228-4 0  9991","EPHEMERIS_TYPE":"0","APOAPSIS":"361.312","SITE":"AFWTR","LAUNCH_DATE":"2023-02-17","INCLINATION":"69.9991","COUNTRY_CODE":"US","CLASSIFICATION_TYPE":"U","OBJECT_NAME":"STARLINK-5328","MEAN_MOTION_DDOT":"0.0000000000000","TIME_SYSTEM":"UTC","FILE":"3922527","ELEMENT_SET_NO":"999","ARG_OF_PERICENTER":"267.4248","PERIOD":"91.724","MEAN_MOTION":"15.69925627","EPOCH":"2023-06-01T21:37:35.298336","RA_OF_ASC_NODE":"217.1598","CENTER_NAME":"EARTH","OBJECT_ID":"2023-021AF","MEAN_MOTION_DOT":"0.00001138","REV_AT_EPOCH":"1688","SEMIMAJOR_AXIS":"6737.247","GP_ID":"232970525","TLE_LINE2":"2 55657  69.9991 217.1598 0003266 267.4248  92.6574 15.69925627 16884","ECCENTRICITY":"0.00032660","NORAD_CAT_ID":"55657","DECAY_DATE":null,"RCS_SIZE":"LARGE","BSTAR":"0.00001122800000","PERIAPSIS":"356.911","MEAN_ANOMALY":"92.6574"},{"SITE":"AFWTR","APOAPSIS":"426.554","LAUNCH_DATE":"2023-02-17","INCLINATION":"70.0002","OBJECT_TYPE":"PAYLOAD","MEAN_ELEMENT_THEORY":"SGP4","TLE_LINE1":"1 55658U 23021AG  23152.91667824 -.00878699  00000-0 -18790-1 0  9998","EPHEMERIS_TYPE":"0","REF_FRAME":"TEME","MEAN_MOTION_DDOT":"0.0000000000000","ARG_OF_PERICENTER":"269.6194","PERIOD":"93.059","TIME_SYSTEM":"UTC","FILE":"3922718","ELEMENT_SET_NO":"999","COUNTRY_CODE":"US","CLASSIFICATION_TYPE":"U","OBJECT_NAME":"STARLINK-5307","REV_AT_EPOCH":"130","SEMIMAJOR_AXIS":"6802.433","MEAN_MOTION_DOT":"-0.00878699","GP_ID":"232999796","CENTER_NAME":"EARTH","MEAN_MOTION":"15.47413363","EPOCH":"2023-06-01T22:00:00.999936","RA_OF_ASC_NODE":"217.8371","OBJECT_ID":"2023-021AG","BSTAR":"-0.01879000000000","MEAN_ANOMALY":"275.7649","PERIAPSIS":"422.042","ECCENTRICITY":"0.00033160","NORAD_CAT_ID":"55658","TLE_LINE2":"2 55658  70.0002 217.8371 0003316 269.6194 275.7649 15.47413363  1300","DECAY_DATE":null,"RCS_SIZE":"LARGE"},{"OBJECT_ID":"2023-021AH","CENTER_NAME":"EARTH","RA_OF_ASC_NODE":"217.1599","EPOCH":"2023-06-01T21:37:26.683392","MEAN_MOTION":"15.69910861","GP_ID":"232970531","SEMIMAJOR_AXIS":"6737.289","REV_AT_EPOCH":"1688","MEAN_MOTION_DOT":"0.00003511","DECAY_DATE":null,"RCS_SIZE":"LARGE","NORAD_CAT_ID":"55659","ECCENTRICITY":"0.00032440","TLE_LINE2":"2 55659  69.9977 217.1599 0003244 272.9791  87.1033 15.69910861 16884","MEAN_ANOMALY":"87.1033","PERIAPSIS":"356.968","BSTAR":"0.00003097400000","TLE_LINE1":"1 55659U 23021AH  23152.90100328  .00003511  00000-0  30974-4 0  9991","EPHEMERIS_TYPE":"0","MEAN_ELEMENT_THEORY":"SGP4","OBJECT_TYPE":"PAYLOAD","REF_FRAME":"TEME","INCLINATION":"69.9977","LAUNCH_DATE":"2023-02-17","SITE":"AFWTR","APOAPSIS":"361.340","CLASSIFICATION_TYPE":"U","COUNTRY_CODE":"US","OBJECT_NAME":"STARLINK-5477","PERIOD":"91.725","ARG_OF_PERICENTER":"272.9791","ELEMENT_SET_NO":"999","FILE":"3922527","TIME_SYSTEM":"UTC","MEAN_MOTION_DDOT":"0.0000000000000"},{"MEAN_MOTION_DOT":"0.00007516","SEMIMAJOR_AXIS":"6737.355","REV_AT_EPOCH":"1680","GP_ID":"232973275","RA_OF_ASC_NODE":"218.7744","MEAN_MOTION":"15.69887734","EPOCH":"2023-06-01T07:52:07.777056","CENTER_NAME":"EARTH","OBJECT_ID":"2023-021AJ","BSTAR":"0.00006431800000","PERIAPSIS":"357.133","MEAN_ANOMALY":"96.9086","TLE_LINE2":"2 55660  69.9973 218.7744 0003098 263.1758  96.9086 15.69887734 16803","NORAD_CAT_ID":"55660","ECCENTRICITY":"0.00030980","DECAY_DATE":null,"RCS_SIZE":"LARGE","APOAPSIS":"361.307","SITE":"AFWTR","INCLINATION":"69.9973","LAUNCH_DATE":"2023-02-17","REF_FRAME":"TEME","EPHEMERIS_TYPE":"0","TLE_LINE1":"1 55660U 23021AJ  23152.32786779  .00007516  00000-0  64318-4 0  9997","OBJECT_TYPE":"PAYLOAD","MEAN_ELEMENT_THEORY":"SGP4","MEAN_MOTION_DDOT":"0.0000000000000","ELEMENT_SET_NO":"999","FILE":"3922647","TIME_SYSTEM":"UTC","PERIOD":"91.726","ARG_OF_PERICENTER":"263.1758","COUNTRY_CODE":"US","OBJECT_NAME":"STARLINK-5467","CLASSIFICATION_TYPE":"U"},{"COUNTRY_CODE":"US","OBJECT_NAME":"STARLINK-5475","CLASSIFICATION_TYPE":"U","MEAN_MOTION_DDOT":"0.0000000000000","TIME_SYSTEM":"UTC","ELEMENT_SET_NO":"999","FILE":"3922528","ARG_OF_PERICENTER":"265.3953","PERIOD":"91.724","REF_FRAME":"TEME","MEAN_ELEMENT_THEORY":"SGP4","OBJECT_TYPE":"PAYLOAD","EPHEMERIS_TYPE":"0","TLE_LINE1":"1 55661U 23021AK  23152.90068507  .00000173  00000-0  32034-5 0  9997","APOAPSIS":"361.155","SITE":"AFWTR","LAUNCH_DATE":"2023-02-17","INCLINATION":"69.9965","TLE_LINE2":"2 55661  69.9965 217.1601 0003015 265.3953  94.6898 15.69921585 16898","ECCENTRICITY":"0.00030150","NORAD_CAT_ID":"55661","DECAY_DATE":null,"RCS_SIZE":"LARGE","BSTAR":"0.00000320340000","PERIAPSIS":"357.092","MEAN_ANOMALY":"94.6898","MEAN_MOTION":"15.69921585","EPOCH":"2023-06-01T21:36:59.190048","RA_OF_ASC_NODE":"217.1601","CENTER_NAME":"EARTH","OBJECT_ID":"2023-021AK","MEAN_MOTION_DOT":"0.00000173","REV_AT_EPOCH":"1689","SEMIMAJOR_AXIS":"6737.258","GP_ID":"232971042"},{"CLASSIFICATION_TYPE":"U","COUNTRY_CODE":"US","OBJECT_NAME":"STARLINK-5479","ARG_OF_PERICENTER":"267.7002","PERIOD":"91.724","TIME_SYSTEM":"UTC","ELEMENT_SET_NO":"999","FILE":"3922528","MEAN_MOTION_DDOT":"0.0000000000000","OBJECT_TYPE":"PAYLOAD","MEAN_ELEMENT_THEORY":"SGP4","EPHEMERIS_TYPE":"0","TLE_LINE1":"1 55662U 23021AL  23152.90120968  .00000705  00000-0  76330-5 0  9996","REF_FRAME":"TEME","LAUNCH_DATE":"2023-02-17","INCLINATION":"69.9971","SITE":"AFWTR","APOAPSIS":"361.280","DECAY_DATE":null,"RCS_SIZE":"LARGE","ECCENTRICITY":"0.00032030","NORAD_CAT_ID":"55662","TLE_LINE2":"2 55662  69.9971 217.1601 0003203 267.7002  92.3827 15.69922091 16885","MEAN_ANOMALY":"92.3827","PERIAPSIS":"356.964","BSTAR":"0.00000763300000","OBJECT_ID":"2023-021AL","CENTER_NAME":"EARTH","EPOCH":"2023-06-01T21:37:44.516352","MEAN_MOTION":"15.69922091","RA_OF_ASC_NODE":"217.1601","GP_ID":"232970540","REV_AT_EPOCH":"1688","SEMIMAJOR_AXIS":"6737.257","MEAN_MOTION_DOT":"0.00000705"},{"OBJECT_ID":"2023-021AM","RA_OF_ASC_NODE":"217.1582","EPOCH":"2023-06-01T21:36:13.460256","MEAN_MOTION":"15.69922814","CENTER_NAME":"EARTH","GP_ID":"233000546","MEAN_MOTION_DOT":"0.00000575","SEMIMAJOR_AXIS":"6737.255","REV_AT_EPOCH":"1719","DECAY_DATE":null,"RCS_SIZE":"LARGE","TLE_LINE2":"2 55663  69.9978 217.1582 0003087 263.0239  97.0605 15.69922814 17196","NORAD_CAT_ID":"55663","ECCENTRICITY":"0.00030870","PERIAPSIS":"357.040","MEAN_ANOMALY":"97.0605","BSTAR":"0.00000654980000","REF_FRAME":"TEME","EPHEMERIS_TYPE":"0","TLE_LINE1":"1 55663U 23021AM  23152.90015579  .00000575  00000-0  65498-5 0  9996","MEAN_ELEMENT_THEORY":"SGP4","OBJECT_TYPE":"PAYLOAD","INCLINATION":"69.9978","LAUNCH_DATE":"2023-02-17","APOAPSIS":"361.200","SITE":"AFWTR","COUNTRY_CODE":"US","OBJECT_NAME":"STARLINK-5473","CLASSIFICATION_TYPE":"U","ELEMENT_SET_NO":"999","FILE":"3922718","TIME_SYSTEM":"UTC","PERIOD":"91.724","ARG_OF_PERICENTER":"263.0239","MEAN_MOTION_DDOT":"0.0000000000000"},{"APOAPSIS":"361.363","SITE":"AFWTR","INCLINATION":"69.9971","LAUNCH_DATE":"2023-02-17","REF_FRAME":"TEME","EPHEMERIS_TYPE":"0","TLE_LINE1":"1 55664U 23021AN  23152.90078950  .00000983  00000-0  99461-5 0  9999","MEAN_ELEMENT_THEORY":"SGP4","OBJECT_TYPE":"PAYLOAD","MEAN_MOTION_DDOT":"0.0000000000000","FILE":"3922718","ELEMENT_SET_NO":"999","TIME_SYSTEM":"UTC","PERIOD":"91.724","ARG_OF_PERICENTER":"268.8221","COUNTRY_CODE":"US","OBJECT_NAME":"STARLINK-5480","CLASSIFICATION_TYPE":"U","MEAN_MOTION_DOT":"0.00000983","SEMIMAJOR_AXIS":"6737.266","REV_AT_EPOCH":"1719","GP_ID":"233000798","RA_OF_ASC_NODE":"217.1589","EPOCH":"2023-06-01T21:37:08.212800","MEAN_MOTION":"15.69918755","CENTER_NAME":"EARTH","OBJECT_ID":"2023-021AN","BSTAR":"0.00000994610000","PERIAPSIS":"356.899","MEAN_ANOMALY":"91.2595","TLE_LINE2":"2 55664  69.9971 217.1589 0003313 268.8221  91.2595 15.69918755 17196","NORAD_CAT_ID":"55664","ECCENTRICITY":"0.00033130","DECAY_DATE":null,"RCS_SIZE":"LARGE"},{"COUNTRY_CODE":"US","OBJECT_NAME":"STARLINK-5474","CLASSIFICATION_TYPE":"U","MEAN_MOTION_DDOT":"0.0000000000000","PERIOD":"91.725","ARG_OF_PERICENTER":"265.1895","ELEMENT_SET_NO":"999","FILE":"3922530","TIME_SYSTEM":"UTC","EPHEMERIS_TYPE":"0","TLE_LINE1":"1 55665U 23021AP  23152.32703005  .00007646  00000-0  65357-4 0  9991","OBJECT_TYPE":"PAYLOAD","MEAN_ELEMENT_THEORY":"SGP4","REF_FRAME":"TEME","SITE":"AFWTR","APOAPSIS":"361.181","INCLINATION":"69.9992","LAUNCH_DATE":"2023-02-17","NORAD_CAT_ID":"55665","ECCENTRICITY":"0.00029830","TLE_LINE2":"2 55665  69.9992 218.7699 0002983 265.1895  94.8960 15.69904733 16801","RCS_SIZE":"LARGE","DECAY_DATE":null,"BSTAR":"0.00006535700000","MEAN_ANOMALY":"94.8960","PERIAPSIS":"357.162","CENTER_NAME":"EARTH","RA_OF_ASC_NODE":"218.7699","EPOCH":"2023-06-01T07:50:55.396320","MEAN_MOTION":"15.69904733","OBJECT_ID":"2023-021AP","SEMIMAJOR_AXIS":"6737.307","REV_AT_EPOCH":"1680","MEAN_MOTION_DOT":"0.00007646","GP_ID":"232970555"}];
